{
"type": "FeatureCollection",
"name": "H0_grid",
"crs": { "type": "name", "properties": { "name": "urn:ogc:def:crs:OGC:1.3:CRS84" } },
"features": [
{ "type": "Feature", "properties": { "h3_index": "8741a0b25ffffff", "resolution": 7, "center_lat": 24.579608613355195, "center_lon": 118.09044779601126, "parent": "8641a0b27ffffff", "hex_type": "HEX", "target_count": 0, "has_target": false, "cell_area_km2": 4.5772525564662594, "is_expansion": true }, "geometry": { "type": "Polygon", "coordinates": [ [ [ 118.102583515091936, 24.574557151989641 ], [ 118.100164758724546, 24.586743783053642 ], [ 118.088028074076163, 24.591795554326058 ], [ 118.078309721642839, 24.584659675083209 ], [ 118.080730117775559, 24.572471481709794 ], [ 118.09286722656546, 24.567420729874378 ], [ 118.102583515091936, 24.574557151989641 ] ] ] } },
{ "type": "Feature", "properties": { "h3_index": "8741a540affffff", "resolution": 7, "center_lat": 24.429077235568403, "center_lon": 118.07578094791788, "parent": "8641a540fffffff", "hex_type": "HEX", "target_count": 0, "has_target": false, "cell_area_km2": 4.5874633616364831, "is_expansion": true }, "geometry": { "type": "Polygon", "coordinates": [ [ [ 118.087912572136673, 24.42403175329153 ], [ 118.085494032407368, 24.436232749425812 ], [ 118.073361443589633, 24.441278549041051 ], [ 118.063646971592135, 24.43412232492275 ], [ 118.066067149359867, 24.421919763493015 ], [ 118.078200161076182, 24.416874991463448 ], [ 118.087912572136673, 24.42403175329153 ] ] ] } },
{ "type": "Feature", "properties": { "h3_index": "8741a540bffffff", "resolution": 7, "center_lat": 24.426964142373521, "center_lon": 118.05393178605257, "parent": "8641a540fffffff", "hex_type": "HEX", "target_count": 0, "has_target": false, "cell_area_km2": 4.5895333637023841, "is_expansion": true }, "geometry": { "type": "Polygon", "coordinates": [ [ [ 118.066067149359867, 24.421919763493015 ], [ 118.063646971592135, 24.43412232492275 ], [ 118.051510643564043, 24.439167020365108 ], [ 118.041794071559636, 24.432008127115534 ], [ 118.044215887451031, 24.419804001511221 ], [ 118.056352637213053, 24.414760333317197 ], [ 118.066067149359867, 24.421919763493015 ] ] ] } },
{ "type": "Feature", "properties": { "h3_index": "8741a5411ffffff", "resolution": 7, "center_lat": 24.435393894033183, "center_lon": 118.14129337042036, "parent": "8641a5417ffffff", "hex_type": "HEX", "target_count": 0, "has_target": false, "cell_area_km2": 4.5812507771468196, "is_expansion": true }, "geometry": { "type": "Polygon", "coordinates": [ [ [ 118.153413765633601, 24.430345111501953 ], [ 118.15100013949278, 24.442541405040359 ], [ 118.138878780051215, 24.447590507235006 ], [ 118.129170620354429, 24.440442287289017 ], [ 118.131585884268745, 24.428244425101973 ], [ 118.143707670094713, 24.423196351496824 ], [ 118.153413765633601, 24.430345111501953 ] ] ] } },
{ "type": "Feature", "properties": { "h3_index": "8741a5413ffffff", "resolution": 7, "center_lat": 24.454736768928559, "center_lon": 118.14858622271456, "parent": "8641a5417ffffff", "hex_type": "HEX", "target_count": 0, "has_target": false, "cell_area_km2": 4.5794616150525211, "is_expansion": true }, "geometry": { "type": "Polygon", "coordinates": [ [ [ 118.160706191008359, 24.449686958009647 ], [ 118.158292947866641, 24.461881072256261 ], [ 118.146172015255061, 24.466931202102824 ], [ 118.136463898943447, 24.459786190038113 ], [ 118.138878780051215, 24.447590507235006 ], [ 118.15100013949278, 24.442541405040359 ], [ 118.160706191008359, 24.449686958009647 ] ] ] } },
{ "type": "Feature", "properties": { "h3_index": "8741a5418ffffff", "resolution": 7, "center_lat": 24.450537902019981, "center_lon": 118.10491805726305, "parent": "8641a541fffffff", "hex_type": "HEX", "target_count": 0, "has_target": true, "cell_area_km2": 4.5836030551676474, "is_expansion": false }, "geometry": { "type": "Polygon", "coordinates": [ [ [ 118.117045515835215, 24.445490290280894 ], [ 118.114628996670973, 24.457687540525242 ], [ 118.102500573532481, 24.462735469642894 ], [ 118.092788245039316, 24.455585121517142 ], [ 118.09520640234885, 24.443386304948373 ], [ 118.107335249995216, 24.43833940281646 ], [ 118.117045515835215, 24.445490290280894 ] ] ] } },
{ "type": "Feature", "properties": { "h3_index": "8741a5419ffffff", "resolution": 7, "center_lat": 24.448432814611301, "center_lon": 118.08307520156524, "parent": "8641a541fffffff", "hex_type": "HEX", "target_count": 0, "has_target": true, "cell_area_km2": 4.5856731355513185, "is_expansion": false }, "geometry": { "type": "Polygon", "coordinates": [ [ [ 118.09520640234885, 24.443386304948373 ], [ 118.092788245039316, 24.455585121517142 ], [ 118.080656079566367, 24.460631947782996 ], [ 118.070941648047523, 24.453478930815862 ], [ 118.073361443589633, 24.441278549041051 ], [ 118.085494032407368, 24.436232749425812 ], [ 118.09520640234885, 24.443386304948373 ] ] ] } },
{ "type": "Feature", "properties": { "h3_index": "8741a541affffff", "resolution": 7, "center_lat": 24.469883858873626, "center_lon": 118.11221218656556, "parent": "8641a541fffffff", "hex_type": "HEX", "target_count": 0, "has_target": true, "cell_area_km2": 4.5818123619121582, "is_expansion": false }, "geometry": { "type": "Polygon", "coordinates": [ [ [ 118.124339220093816, 24.464835220349499 ], [ 118.121923083659652, 24.477030289095122 ], [ 118.109795085475028, 24.482079244262419 ], [ 118.100082798759516, 24.474932104621121 ], [ 118.102500573532481, 24.462735469642894 ], [ 118.114628996670973, 24.457687540525242 ], [ 118.124339220093816, 24.464835220349499 ] ] ] } },
{ "type": "Feature", "properties": { "h3_index": "8741a541bffffff", "resolution": 7, "center_lat": 24.467783005756488, "center_lon": 118.09036979663021, "parent": "8641a541fffffff", "hex_type": "HEX", "target_count": 0, "has_target": true, "cell_area_km2": 4.5838820874366109, "is_expansion": false }, "geometry": { "type": "Polygon", "coordinates": [ [ [ 118.102500573532481, 24.462735469642894 ], [ 118.100082798759516, 24.474932104621121 ], [ 118.087951057077618, 24.479979956602328 ], [ 118.07823666636682, 24.472830147876341 ], [ 118.080656079566367, 24.460631947782996 ], [ 118.092788245039316, 24.455585121517142 ], [ 118.102500573532481, 24.462735469642894 ] ] ] } },
{ "type": "Feature", "properties": { "h3_index": "8741a541cffffff", "resolution": 7, "center_lat": 24.433292109204714, "center_lon": 118.11946174410221, "parent": "8641a541fffffff", "hex_type": "HEX", "target_count": 0, "has_target": true, "cell_area_km2": 4.5833220655083995, "is_expansion": true }, "geometry": { "type": "Polygon", "coordinates": [ [ [ 118.131585884268745, 24.428244425101973 ], [ 118.129170620354429, 24.440442287289017 ], [ 118.117045515835215, 24.445490290280894 ], [ 118.107335249995216, 24.43833940281646 ], [ 118.109752151772881, 24.426139973096937 ], [ 118.121877681515898, 24.421092998361317 ], [ 118.131585884268745, 24.428244425101973 ] ] ] } },
{ "type": "Feature", "properties": { "h3_index": "8741a541dffffff", "resolution": 7, "center_lat": 24.431186557114721, "center_lon": 118.09762426860273, "parent": "8641a541fffffff", "hex_type": "HEX", "target_count": 0, "has_target": false, "cell_area_km2": 4.5853929279636967, "is_expansion": true }, "geometry": { "type": "Polygon", "coordinates": [ [ [ 118.109752151772881, 24.426139973096937 ], [ 118.107335249995216, 24.43833940281646 ], [ 118.09520640234885, 24.443386304948373 ], [ 118.085494032407368, 24.436232749425812 ], [ 118.087912572136673, 24.42403175329153 ], [ 118.100041843844906, 24.418985879081269 ], [ 118.109752151772881, 24.426139973096937 ] ] ] } },
{ "type": "Feature", "properties": { "h3_index": "8741a541effffff", "resolution": 7, "center_lat": 24.452639219392907, "center_lon": 118.1267550656441, "parent": "8641a541fffffff", "hex_type": "HEX", "target_count": 0, "has_target": true, "cell_area_km2": 4.5815325473854092, "is_expansion": false }, "geometry": { "type": "Polygon", "coordinates": [ [ [ 118.138878780051215, 24.447590507235006 ], [ 118.136463898943447, 24.459786190038113 ], [ 118.124339220093816, 24.464835220349499 ], [ 118.114628996670973, 24.457687540525242 ], [ 118.117045515835215, 24.445490290280894 ], [ 118.129170620354429, 24.440442287289017 ], [ 118.138878780051215, 24.447590507235006 ] ] ] } },
{ "type": "Feature", "properties": { "h3_index": "8741a5450ffffff", "resolution": 7, "center_lat": 24.422726632281925, "center_lon": 118.0102159548448, "parent": "8641a5457ffffff", "hex_type": "HEX", "target_count": 0, "has_target": false, "cell_area_km2": 4.5936720616081752, "is_expansion": true }, "geometry": { "type": "Polygon", "coordinates": [ [ [ 118.022358790427703, 24.417684465158544 ], [ 118.019935336328942, 24.429890153814988 ], [ 118.007791535784079, 24.434932635944968 ], [ 117.998070769928063, 24.42776840283452 ], [ 118.000495862316342, 24.415561152249964 ], [ 118.012640082261811, 24.410519696689512 ], [ 118.022358790427703, 24.417684465158544 ] ] ] } },
{ "type": "Feature", "properties": { "h3_index": "8741a5451ffffff", "resolution": 7, "center_lat": 24.420602211013595, "center_lon": 117.98834929355685, "parent": "8641a5457ffffff", "hex_type": "HEX", "target_count": 0, "has_target": false, "cell_area_km2": 4.5957407517372495, "is_expansion": true }, "geometry": { "type": "Polygon", "coordinates": [ [ [ 118.000495862316342, 24.415561152249964 ], [ 117.998070769928063, 24.42776840283452 ], [ 117.985923236087302, 24.432809775826012 ], [ 117.976200376393948, 24.425642871990128 ], [ 117.978627107152406, 24.413434060603041 ], [ 117.990775059225086, 24.40839371383964 ], [ 118.000495862316342, 24.415561152249964 ] ] ] } },
{ "type": "Feature", "properties": { "h3_index": "8741a5452ffffff", "resolution": 7, "center_lat": 24.442094910224828, "center_lon": 118.01751159064335, "parent": "8641a5457ffffff", "hex_type": "HEX", "target_count": 0, "has_target": true, "cell_area_km2": 4.5918807838641822, "is_expansion": false }, "geometry": { "type": "Polygon", "coordinates": [ [ [ 118.029654006287416, 24.437051716729307 ], [ 118.027230934024359, 24.449255225554737 ], [ 118.015087553326978, 24.454298733321739 ], [ 118.005366825035736, 24.447137706611841 ], [ 118.007791535784079, 24.434932635944968 ], [ 118.019935336328942, 24.429890153814988 ], [ 118.029654006287416, 24.437051716729307 ] ] ] } },
{ "type": "Feature", "properties": { "h3_index": "8741a5453ffffff", "resolution": 7, "center_lat": 24.43997472074004, "center_lon": 117.99564538579524, "parent": "8641a5457ffffff", "hex_type": "HEX", "target_count": 0, "has_target": true, "cell_area_km2": 4.5939491261928849, "is_expansion": false }, "geometry": { "type": "Polygon", "coordinates": [ [ [ 118.007791535784079, 24.434932635944968 ], [ 118.005366825035736, 24.447137706611841 ], [ 117.993219709873998, 24.452180104899739 ], [ 117.983496886772514, 24.445016407209629 ], [ 117.985923236087302, 24.432809775826012 ], [ 117.998070769928063, 24.42776840283452 ], [ 118.007791535784079, 24.434932635944968 ] ] ] } },
{ "type": "Feature", "properties": { "h3_index": "8741a5456ffffff", "resolution": 7, "center_lat": 24.424847275340397, "center_lon": 118.0320767870206, "parent": "8641a5457ffffff", "hex_type": "HEX", "target_count": 0, "has_target": false, "cell_area_km2": 4.5916029313105167, "is_expansion": true }, "geometry": { "type": "Polygon", "coordinates": [ [ [ 118.044215887451031, 24.419804001511221 ], [ 118.041794071559636, 24.432008127115534 ], [ 118.029654006287416, 24.437051716729307 ], [ 118.019935336328942, 24.429890153814988 ], [ 118.022358790427703, 24.417684465158544 ], [ 118.034499276267852, 24.412641902454386 ], [ 118.044215887451031, 24.419804001511221 ] ] ] } },
{ "type": "Feature", "properties": { "h3_index": "8741a545affffff", "resolution": 7, "center_lat": 24.455098581208674, "center_lon": 117.9591928432709, "parent": "8641a545fffffff", "hex_type": "HEX", "target_count": 0, "has_target": false, "cell_area_km2": 4.5962913346305374, "is_expansion": true }, "geometry": { "type": "Polygon", "coordinates": [ [ [ 117.971346039127027, 24.450057694362883 ], [ 117.968918432530614, 24.462263703214621 ], [ 117.956764271172744, 24.467304901259084 ], [ 117.947037299617321, 24.460139066755598 ], [ 117.949466545135053, 24.447931499526621 ], [ 117.96162112327842, 24.442891325163064 ], [ 117.971346039127027, 24.450057694362883 ] ] ] } },
{ "type": "Feature", "properties": { "h3_index": "8741a545effffff", "resolution": 7, "center_lat": 24.437850750265813, "center_lon": 117.97377335373348, "parent": "8641a545fffffff", "hex_type": "HEX", "target_count": 0, "has_target": false, "cell_area_km2": 4.5960170268742884, "is_expansion": true }, "geometry": { "type": "Polygon", "coordinates": [ [ [ 117.985923236087302, 24.432809775826012 ], [ 117.983496886772514, 24.445016407209629 ], [ 117.971346039127027, 24.450057694362883 ], [ 117.96162112327842, 24.442891325163064 ], [ 117.964049111239291, 24.430683134188946 ], [ 117.976200376393948, 24.425642871990128 ], [ 117.985923236087302, 24.432809775826012 ] ] ] } },
{ "type": "Feature", "properties": { "h3_index": "8741a5481ffffff", "resolution": 7, "center_lat": 24.529973747105771, "center_lon": 118.15593174835548, "parent": "8641a5487ffffff", "hex_type": "HEX", "target_count": 0, "has_target": false, "cell_area_km2": 4.5743663139258519, "is_expansion": true }, "geometry": { "type": "Polygon", "coordinates": [ [ [ 118.168053755267763, 24.524920932100105 ], [ 118.165640406551034, 24.537107877181288 ], [ 118.153517434837894, 24.542161007399276 ], [ 118.143807384376672, 24.535026168952466 ], [ 118.146222371920885, 24.522837656809969 ], [ 118.158345771086886, 24.517785550162511 ], [ 118.168053755267763, 24.524920932100105 ] ] ] } },
{ "type": "Feature", "properties": { "h3_index": "8741a5483ffffff", "resolution": 7, "center_lat": 24.549293885300909, "center_lon": 118.1632267671056, "parent": "8641a5487ffffff", "hex_type": "HEX", "target_count": 0, "has_target": false, "cell_area_km2": 4.5725727293738077, "is_expansion": true }, "geometry": { "type": "Polygon", "coordinates": [ [ [ 118.175348346029722, 24.54424004692752 ], [ 118.172935380701887, 24.55642480254884 ], [ 118.16081283688753, 24.561478955399625 ], [ 118.151102830490146, 24.554347329983194 ], [ 118.153517434837894, 24.542161007399276 ], [ 118.165640406551034, 24.537107877181288 ], [ 118.175348346029722, 24.54424004692752 ] ] ] } },
{ "type": "Feature", "properties": { "h3_index": "8741a5488ffffff", "resolution": 7, "center_lat": 24.545129829208136, "center_lon": 118.11955158681474, "parent": "8641a548fffffff", "hex_type": "HEX", "target_count": 0, "has_target": false, "cell_area_km2": 4.576709731045665, "is_expansion": false }, "geometry": { "type": "Polygon", "coordinates": [ [ [ 118.131680663729881, 24.54007819665005 ], [ 118.129264420270729, 24.552266085084295 ], [ 118.117134378215397, 24.557318030570261 ], [ 118.107420154031828, 24.550181065636036 ], [ 118.109838036692352, 24.537991612465326 ], [ 118.12196850432376, 24.532940688951655 ], [ 118.131680663729881, 24.54007819665005 ] ] ] } },
{ "type": "Feature", "properties": { "h3_index": "8741a5489ffffff", "resolution": 7, "center_lat": 24.543042139620059, "center_lon": 118.09770521370719, "parent": "8641a548fffffff", "hex_type": "HEX", "target_count": 0, "has_target": true, "cell_area_km2": 4.5787775981763588, "is_expansion": false }, "geometry": { "type": "Polygon", "coordinates": [ [ [ 118.109838036692352, 24.537991612465326 ], [ 118.107420154031828, 24.550181065636036 ], [ 118.095286365782783, 24.55523190494279 ], [ 118.085570035770573, 24.548092269424867 ], [ 118.087989557720888, 24.535901252633096 ], [ 118.100123770382666, 24.530851434966362 ], [ 118.109838036692352, 24.537991612465326 ] ] ] } },
{ "type": "Feature", "properties": { "h3_index": "8741a548affffff", "resolution": 7, "center_lat": 24.564453034312681, "center_lon": 118.12684788577863, "parent": "8641a548fffffff", "hex_type": "HEX", "target_count": 0, "has_target": false, "cell_area_km2": 4.5749146150323776, "is_expansion": true }, "geometry": { "type": "Polygon", "coordinates": [ [ [ 118.138976536581453, 24.559400379984009 ], [ 118.13656067624251, 24.571586076753967 ], [ 118.124431060209574, 24.576639043275978 ], [ 118.114716878481744, 24.569505291978295 ], [ 118.117134378215397, 24.557318030570261 ], [ 118.129264420270729, 24.552266085084295 ], [ 118.138976536581453, 24.559400379984009 ] ] ] } },
{ "type": "Feature", "properties": { "h3_index": "8741a548bffffff", "resolution": 7, "center_lat": 24.562369579164034, "center_lon": 118.10500198017969, "parent": "8641a548fffffff", "hex_type": "HEX", "target_count": 0, "has_target": true, "cell_area_km2": 4.5769821208993235, "is_expansion": true }, "geometry": { "type": "Polygon", "coordinates": [ [ [ 118.117134378215397, 24.557318030570261 ], [ 118.114716878481744, 24.569505291978295 ], [ 118.102583515091936, 24.574557151989641 ], [ 118.09286722656546, 24.567420729874378 ], [ 118.095286365782783, 24.55523190494279 ], [ 118.107420154031828, 24.550181065636036 ], [ 118.117134378215397, 24.557318030570261 ] ] ] } },
{ "type": "Feature", "properties": { "h3_index": "8741a548cffffff", "resolution": 7, "center_lat": 24.52788937006973, "center_lon": 118.13409661620007, "parent": "8641a548fffffff", "hex_type": "HEX", "target_count": 0, "has_target": true, "cell_area_km2": 4.5764353874844756, "is_expansion": false }, "geometry": { "type": "Polygon", "coordinates": [ [ [ 118.146222371920885, 24.522837656809969 ], [ 118.143807384376672, 24.535026168952466 ], [ 118.131680663729881, 24.54007819665005 ], [ 118.12196850432376, 24.532940688951655 ], [ 118.124385130786436, 24.520750610861015 ], [ 118.136512277725231, 24.515699606403562 ], [ 118.146222371920885, 24.522837656809969 ] ] ] } },
{ "type": "Feature", "properties": { "h3_index": "8741a548dffffff", "resolution": 7, "center_lat": 24.52580122071209, "center_lon": 118.11225562820522, "parent": "8641a548fffffff", "hex_type": "HEX", "target_count": 0, "has_target": true, "cell_area_km2": 4.5785040391067469, "is_expansion": false }, "geometry": { "type": "Polygon", "coordinates": [ [ [ 118.124385130786436, 24.520750610861015 ], [ 118.12196850432376, 24.532940688951655 ], [ 118.109838036692352, 24.537991612465326 ], [ 118.100123770382666, 24.530851434966362 ], [ 118.102542035853205, 24.518659792042346 ], [ 118.114672928614425, 24.513609891437028 ], [ 118.124385130786436, 24.520750610861015 ] ] ] } },
{ "type": "Feature", "properties": { "h3_index": "8741a548effffff", "resolution": 7, "center_lat": 24.547213743697071, "center_lon": 118.14139210594485, "parent": "8641a548fffffff", "hex_type": "HEX", "target_count": 0, "has_target": true, "cell_area_km2": 4.5746414405018374, "is_expansion": false }, "geometry": { "type": "Polygon", "coordinates": [ [ [ 118.153517434837894, 24.542161007399276 ], [ 118.151102830490146, 24.554347329983194 ], [ 118.138976536581453, 24.559400379984009 ], [ 118.129264420270729, 24.552266085084295 ], [ 118.131680663729881, 24.54007819665005 ], [ 118.143807384376672, 24.535026168952466 ], [ 118.153517434837894, 24.542161007399276 ] ] ] } },
{ "type": "Feature", "properties": { "h3_index": "8741a549dffffff", "resolution": 7, "center_lat": 24.566532713798207, "center_lon": 118.14868793526827, "parent": "8641a549fffffff", "hex_type": "HEX", "target_count": 0, "has_target": false, "cell_area_km2": 4.5728466871108218, "is_expansion": true }, "geometry": { "type": "Polygon", "coordinates": [ [ [ 118.16081283688753, 24.561478955399625 ], [ 118.158398615852761, 24.573663086418577 ], [ 118.146272749128258, 24.578717157785505 ], [ 118.13656067624251, 24.571586076753967 ], [ 118.138976536581453, 24.559400379984009 ], [ 118.151102830490146, 24.554347329983194 ], [ 118.16081283688753, 24.561478955399625 ] ] ] } },
{ "type": "Feature", "properties": { "h3_index": "8741a54a8ffffff", "resolution": 7, "center_lat": 24.491317272057163, "center_lon": 118.14134272811638, "parent": "8641a54afffffff", "hex_type": "HEX", "target_count": 0, "has_target": true, "cell_area_km2": 4.5779510572214042, "is_expansion": false }, "geometry": { "type": "Polygon", "coordinates": [ [ [ 118.153465589667604, 24.486266506600405 ], [ 118.15105147452239, 24.498457824572906 ], [ 118.138927648349338, 24.503508906712288 ], [ 118.129217510748646, 24.496367645420676 ], [ 118.131633264336074, 24.484174760193891 ], [ 118.143757517070327, 24.479124703499938 ], [ 118.153465589667604, 24.486266506600405 ] ] ] } },
{ "type": "Feature", "properties": { "h3_index": "8741a54a9ffffff", "resolution": 7, "center_lat": 24.489224424566611, "center_lon": 118.11950665629767, "parent": "8641a54afffffff", "hex_type": "HEX", "target_count": 0, "has_target": true, "cell_area_km2": 4.5800208510026321, "is_expansion": false }, "geometry": { "type": "Polygon", "coordinates": [ [ [ 118.131633264336074, 24.484174760193891 ], [ 118.129217510748646, 24.496367645420676 ], [ 118.117089937963911, 24.501417625701315 ], [ 118.107377693355446, 24.494273695628483 ], [ 118.109795085475028, 24.482079244262419 ], [ 118.121923083659652, 24.477030289095122 ], [ 118.131633264336074, 24.484174760193891 ] ] ] } },
{ "type": "Feature", "properties": { "h3_index": "8741a54aaffffff", "resolution": 7, "center_lat": 24.510648208329854, "center_lon": 118.14863706862147, "parent": "8641a54afffffff", "hex_type": "HEX", "target_count": 0, "has_target": true, "cell_area_km2": 4.5761590908090843, "is_expansion": true }, "geometry": { "type": "Polygon", "coordinates": [ [ [ 118.160759503076065, 24.505596417629786 ], [ 118.158345771086886, 24.517785550162511 ], [ 118.146222371920885, 24.522837656809969 ], [ 118.136512277725231, 24.515699606403562 ], [ 118.138927648349338, 24.503508906712288 ], [ 118.15105147452239, 24.498457824572906 ], [ 118.160759503076065, 24.505596417629786 ] ] ] } },
{ "type": "Feature", "properties": { "h3_index": "8741a54abffffff", "resolution": 7, "center_lat": 24.508559595996946, "center_lon": 118.12680146624675, "parent": "8641a54afffffff", "hex_type": "HEX", "target_count": 0, "has_target": true, "cell_area_km2": 4.5782285252533672, "is_expansion": false }, "geometry": { "type": "Polygon", "coordinates": [ [ [ 118.138927648349338, 24.503508906712288 ], [ 118.136512277725231, 24.515699606403562 ], [ 118.124385130786436, 24.520750610861015 ], [ 118.114672928614425, 24.513609891437028 ], [ 118.117089937963911, 24.501417625701315 ], [ 118.129217510748646, 24.496367645420676 ], [ 118.138927648349338, 24.503508906712288 ] ] ] } },
{ "type": "Feature", "properties": { "h3_index": "8741a54acffffff", "resolution": 7, "center_lat": 24.474074255474086, "center_lon": 118.15587941410104, "parent": "8641a54afffffff", "hex_type": "HEX", "target_count": 0, "has_target": false, "cell_area_km2": 4.5776716356022016, "is_expansion": true }, "geometry": { "type": "Polygon", "coordinates": [ [ [ 118.167998955029859, 24.46902341710544 ], [ 118.165586095003604, 24.481215350039708 ], [ 118.153465589667604, 24.486266506600405 ], [ 118.143757517070327, 24.479124703499938 ], [ 118.146172015255061, 24.466931202102824 ], [ 118.158292947866641, 24.461881072256261 ], [ 118.167998955029859, 24.46902341710544 ] ] ] } },
{ "type": "Feature", "properties": { "h3_index": "8741a54adffffff", "resolution": 7, "center_lat": 24.471980941378803, "center_lon": 118.13404872705303, "parent": "8641a54afffffff", "hex_type": "HEX", "target_count": 0, "has_target": true, "cell_area_km2": 4.5797422103527632, "is_expansion": false }, "geometry": { "type": "Polygon", "coordinates": [ [ [ 118.146172015255061, 24.466931202102824 ], [ 118.143757517070327, 24.479124703499938 ], [ 118.131633264336074, 24.484174760193891 ], [ 118.121923083659652, 24.477030289095122 ], [ 118.124339220093816, 24.464835220349499 ], [ 118.136463898943447, 24.459786190038113 ], [ 118.146172015255061, 24.466931202102824 ] ] ] } },
{ "type": "Feature", "properties": { "h3_index": "8741a54aeffffff", "resolution": 7, "center_lat": 24.493406350568421, "center_lon": 118.16317294436702, "parent": "8641a54afffffff", "hex_type": "HEX", "target_count": 0, "has_target": false, "cell_area_km2": 4.5758808416136487, "is_expansion": true }, "geometry": { "type": "Polygon", "coordinates": [ [ [ 118.175292057485365, 24.488354485688149 ], [ 118.17287958069096, 24.500544235292942 ], [ 118.160759503076065, 24.505596417629786 ], [ 118.15105147452239, 24.498457824572906 ], [ 118.153465589667604, 24.486266506600405 ], [ 118.165586095003604, 24.481215350039708 ], [ 118.175292057485365, 24.488354485688149 ] ] ] } },
{ "type": "Feature", "properties": { "h3_index": "8741a54c0ffffff", "resolution": 7, "center_lat": 24.517410855895633, "center_lon": 118.02483319784706, "parent": "8641a54c7ffffff", "hex_type": "HEX", "target_count": 0, "has_target": true, "cell_area_km2": 4.5867743694433996, "is_expansion": false }, "geometry": { "type": "Polygon", "coordinates": [ [ [ 118.036977668283313, 24.512364676297157 ], [ 118.03455448526789, 24.524561007017084 ], [ 118.022409049292975, 24.529607497169795 ], [ 118.012686375856447, 24.522456635020131 ], [ 118.015111198222087, 24.510258743941538 ], [ 118.027257054664403, 24.505213275356493 ], [ 118.036977668283313, 24.512364676297157 ] ] ] } },
{ "type": "Feature", "properties": { "h3_index": "8741a54c1ffffff", "resolution": 7, "center_lat": 24.515303811824889, "center_lon": 118.00296299074495, "parent": "8641a54c7ffffff", "hex_type": "HEX", "target_count": 0, "has_target": true, "cell_area_km2": 4.5888408687807827, "is_expansion": false }, "geometry": { "type": "Polygon", "coordinates": [ [ [ 118.015111198222087, 24.510258743941538 ], [ 118.012686375856447, 24.522456635020131 ], [ 118.000537202720622, 24.527502012678774 ], [ 117.990812432642812, 24.520348478014668 ], [ 117.993238894440395, 24.508149027700011 ], [ 118.005388486874651, 24.50310467127046 ], [ 118.015111198222087, 24.510258743941538 ] ] ] } },
{ "type": "Feature", "properties": { "h3_index": "8741a54c2ffffff", "resolution": 7, "center_lat": 24.536756398158673, "center_lon": 118.03213101057274, "parent": "8641a54c7ffffff", "hex_type": "HEX", "target_count": 0, "has_target": true, "cell_area_km2": 4.5849786307320279, "is_expansion": false }, "geometry": { "type": "Polygon", "coordinates": [ [ [ 118.044275060003244, 24.531709197190946 ], [ 118.041852259214252, 24.54390333787229 ], [ 118.029707244153826, 24.548950848659981 ], [ 118.01998460895814, 24.541803198116551 ], [ 118.022409049292975, 24.529607497169795 ], [ 118.03455448526789, 24.524561007017084 ], [ 118.044275060003244, 24.531709197190946 ] ] ] } },
{ "type": "Feature", "properties": { "h3_index": "8741a54c3ffffff", "resolution": 7, "center_lat": 24.534653586084556, "center_lon": 118.01026126165311, "parent": "8641a54c7ffffff", "hex_type": "HEX", "target_count": 0, "has_target": true, "cell_area_km2": 4.5870447758294723, "is_expansion": false }, "geometry": { "type": "Polygon", "coordinates": [ [ [ 118.022409049292975, 24.529607497169795 ], [ 118.01998460895814, 24.541803198116551 ], [ 118.007835855568089, 24.54684959607242 ], [ 117.998111122757706, 24.539699272769223 ], [ 118.000537202720622, 24.527502012678774 ], [ 118.012686375856447, 24.522456635020131 ], [ 118.022409049292975, 24.529607497169795 ] ] ] } },
{ "type": "Feature", "properties": { "h3_index": "8741a54c4ffffff", "resolution": 7, "center_lat": 24.500167407061362, "center_lon": 118.03940055966298, "parent": "8641a54c7ffffff", "hex_type": "HEX", "target_count": 0, "has_target": true, "cell_area_km2": 4.5865020016273608, "is_expansion": false }, "geometry": { "type": "Polygon", "coordinates": [ [ [ 118.051541712809936, 24.495121140047459 ], [ 118.049119786757089, 24.507318097216285 ], [ 118.036977668283313, 24.512364676297157 ], [ 118.027257054664403, 24.505213275356493 ], [ 118.029680619788991, 24.493014756615295 ], [ 118.041823159450843, 24.487969200372646 ], [ 118.051541712809936, 24.495121140047459 ] ] ] } },
{ "type": "Feature", "properties": { "h3_index": "8741a54c5ffffff", "resolution": 7, "center_lat": 24.498059913911671, "center_lon": 118.01753572879404, "parent": "8641a54c7ffffff", "hex_type": "HEX", "target_count": 0, "has_target": true, "cell_area_km2": 4.5885692911653866, "is_expansion": false }, "geometry": { "type": "Polygon", "coordinates": [ [ [ 118.029680619788991, 24.493014756615295 ], [ 118.027257054664403, 24.505213275356493 ], [ 118.015111198222087, 24.510258743941538 ], [ 118.005388486874651, 24.50310467127046 ], [ 118.007813691153714, 24.490904592078806 ], [ 118.019959967616259, 24.485860145993925 ], [ 118.029680619788991, 24.493014756615295 ] ] ] } },
{ "type": "Feature", "properties": { "h3_index": "8741a54c6ffffff", "resolution": 7, "center_lat": 24.519514116618272, "center_lon": 118.04669756916952, "parent": "8641a54c7ffffff", "hex_type": "HEX", "target_count": 0, "has_target": false, "cell_area_km2": 4.5847074339580285, "is_expansion": false }, "geometry": { "type": "Polygon", "coordinates": [ [ [ 118.05883830059048, 24.514466826964949 ], [ 118.056416756841998, 24.526661596205177 ], [ 118.044275060003244, 24.531709197190946 ], [ 118.03455448526789, 24.524561007017084 ], [ 118.036977668283313, 24.512364676297157 ], [ 118.049119786757089, 24.507318097216285 ], [ 118.05883830059048, 24.514466826964949 ] ] ] } },
{ "type": "Feature", "properties": { "h3_index": "8741a54c8ffffff", "resolution": 7, "center_lat": 24.530436601344558, "center_lon": 117.96650426620809, "parent": "8641a54cfffffff", "hex_type": "HEX", "target_count": 0, "has_target": false, "cell_area_km2": 4.5911757503331199, "is_expansion": true }, "geometry": { "type": "Polygon", "coordinates": [ [ [ 117.978659524326559, 24.525392741518697 ], [ 117.976231804654816, 24.537591559629604 ], [ 117.964075580548069, 24.542635726936673 ], [ 117.954346658700302, 24.535480056499537 ], [ 117.956776018160042, 24.523279681493019 ], [ 117.968932659670969, 24.518236533803595 ], [ 117.978659524326559, 24.525392741518697 ] ] ] } },
{ "type": "Feature", "properties": { "h3_index": "8741a54caffffff", "resolution": 7, "center_lat": 24.549789435478356, "center_lon": 117.97380379284273, "parent": "8641a54cfffffff", "hex_type": "HEX", "target_count": 0, "has_target": false, "cell_area_km2": 4.5893781341811053, "is_expansion": true }, "geometry": { "type": "Polygon", "coordinates": [ [ [ 117.985958633017106, 24.544744556231386 ], [ 117.983531295101031, 24.556941182008298 ], [ 117.971375488846306, 24.561986368002678 ], [ 117.961646602646937, 24.554833909517178 ], [ 117.964075580548069, 24.542635726936673 ], [ 117.976231804654816, 24.537591559629604 ], [ 117.985958633017106, 24.544744556231386 ] ] ] } },
{ "type": "Feature", "properties": { "h3_index": "8741a54ccffffff", "resolution": 7, "center_lat": 24.513192982208441, "center_lon": 117.98108695190199, "parent": "8641a54cfffffff", "hex_type": "HEX", "target_count": 0, "has_target": true, "cell_area_km2": 4.5909069291296749, "is_expansion": false }, "geometry": { "type": "Polygon", "coordinates": [ [ [ 117.993238894440395, 24.508149027700011 ], [ 117.990812432642812, 24.520348478014668 ], [ 117.978659524326559, 24.525392741518697 ], [ 117.968932659670969, 24.518236533803595 ], [ 117.971360760980758, 24.506035525377047 ], [ 117.983514087425064, 24.500992282762134 ], [ 117.993238894440395, 24.508149027700011 ] ] ] } },
{ "type": "Feature", "properties": { "h3_index": "8741a54cdffffff", "resolution": 7, "center_lat": 24.511078364851294, "center_lon": 117.95920508536591, "parent": "8641a54cfffffff", "hex_type": "HEX", "target_count": 0, "has_target": false, "cell_area_km2": 4.5929725476408549, "is_expansion": true }, "geometry": { "type": "Polygon", "coordinates": [ [ [ 117.971360760980758, 24.506035525377047 ], [ 117.968932659670969, 24.518236533803595 ], [ 117.956776018160042, 24.523279681493019 ], [ 117.947047060993995, 24.516120800192446 ], [ 117.949476801894576, 24.503918234779736 ], [ 117.961633860361914, 24.498876107638122 ], [ 117.971360760980758, 24.506035525377047 ] ] ] } },
{ "type": "Feature", "properties": { "h3_index": "8741a54ceffffff", "resolution": 7, "center_lat": 24.5325469878794, "center_lon": 117.9883856788497, "parent": "8641a54cfffffff", "hex_type": "HEX", "target_count": 0, "has_target": true, "cell_area_km2": 4.5891104833109795, "is_expansion": false }, "geometry": { "type": "Polygon", "coordinates": [ [ [ 118.000537202720622, 24.527502012678774 ], [ 117.998111122757706, 24.539699272769223 ], [ 117.985958633017106, 24.544744556231386 ], [ 117.976231804654816, 24.537591559629604 ], [ 117.978659524326559, 24.525392741518697 ], [ 117.990812432642812, 24.520348478014668 ], [ 118.000537202720622, 24.527502012678774 ] ] ] } },
{ "type": "Feature", "properties": { "h3_index": "8741a54d0ffffff", "resolution": 7, "center_lat": 24.558191333019405, "center_lon": 118.06129261665757, "parent": "8641a54d7ffffff", "hex_type": "HEX", "target_count": 0, "has_target": true, "cell_area_km2": 4.5811158551470719, "is_expansion": false }, "geometry": { "type": "Polygon", "coordinates": [ [ [ 118.073432503285929, 24.553142000888496 ], [ 118.071011724497566, 24.565332388227578 ], [ 118.05887087226958, 24.570382030222298 ], [ 118.049150376290854, 24.563240264825801 ], [ 118.051572794736202, 24.551048316196884 ], [ 118.063714069493045, 24.545999694239761 ], [ 118.073432503285929, 24.553142000888496 ] ] ] } },
{ "type": "Feature", "properties": { "h3_index": "8741a54d1ffffff", "resolution": 7, "center_lat": 24.556096537600837, "center_lon": 118.03942916675857, "parent": "8641a54d7ffffff", "hex_type": "HEX", "target_count": 0, "has_target": true, "cell_area_km2": 4.5831820778513732, "is_expansion": false }, "geometry": { "type": "Polygon", "coordinates": [ [ [ 118.051572794736202, 24.551048316196884 ], [ 118.049150376290854, 24.563240264825801 ], [ 118.037005782592146, 24.568288795315581 ], [ 118.027283185967192, 24.561144357459536 ], [ 118.029707244153826, 24.548950848659981 ], [ 118.041852259214252, 24.54390333787229 ], [ 118.051572794736202, 24.551048316196884 ] ] ] } },
{ "type": "Feature", "properties": { "h3_index": "8741a54d2ffffff", "resolution": 7, "center_lat": 24.577521833678482, "center_lon": 118.06859065421382, "parent": "8641a54d7ffffff", "hex_type": "HEX", "target_count": 0, "has_target": false, "cell_area_km2": 4.5793188496436379, "is_expansion": true }, "geometry": { "type": "Polygon", "coordinates": [ [ [ 118.080730117775559, 24.572471481709794 ], [ 118.078309721642839, 24.584659675083209 ], [ 118.066169292390754, 24.589710336181621 ], [ 118.056448836285114, 24.582571784788389 ], [ 118.05887087226958, 24.570382030222298 ], [ 118.071011724497566, 24.565332388227578 ], [ 118.080730117775559, 24.572471481709794 ] ] ] } },
{ "type": "Feature", "properties": { "h3_index": "8741a54d3ffffff", "resolution": 7, "center_lat": 24.575431271129247, "center_lon": 118.0467276661919, "parent": "8641a54d7ffffff", "hex_type": "HEX", "target_count": 0, "has_target": false, "cell_area_km2": 4.5813847136224943, "is_expansion": true }, "geometry": { "type": "Polygon", "coordinates": [ [ [ 118.05887087226958, 24.570382030222298 ], [ 118.056448836285114, 24.582571784788389 ], [ 118.044304664395312, 24.587621334047171 ], [ 118.034582106671053, 24.580480109956039 ], [ 118.037005782592146, 24.568288795315581 ], [ 118.049150376290854, 24.563240264825801 ], [ 118.05887087226958, 24.570382030222298 ] ] ] } },
{ "type": "Feature", "properties": { "h3_index": "8741a54d4ffffff", "resolution": 7, "center_lat": 24.540950672721323, "center_lon": 118.07585299062299, "parent": "8641a54d7ffffff", "hex_type": "HEX", "target_count": 0, "has_target": false, "cell_area_km2": 4.580845039058846, "is_expansion": false }, "geometry": { "type": "Polygon", "coordinates": [ [ [ 118.087989557720888, 24.535901252633096 ], [ 118.085570035770573, 24.548092269424867 ], [ 118.073432503285929, 24.553142000888496 ], [ 118.063714069493045, 24.545999694239761 ], [ 118.066135230820024, 24.533807114943929 ], [ 118.078273186552664, 24.528758404786664 ], [ 118.087989557720888, 24.535901252633096 ] ] ] } },
{ "type": "Feature", "properties": { "h3_index": "8741a54d5ffffff", "resolution": 7, "center_lat": 24.538855426302995, "center_lon": 118.05399492157193, "parent": "8641a54d7ffffff", "hex_type": "HEX", "target_count": 0, "has_target": true, "cell_area_km2": 4.5829120508557475, "is_expansion": false }, "geometry": { "type": "Polygon", "coordinates": [ [ [ 118.066135230820024, 24.533807114943929 ], [ 118.063714069493045, 24.545999694239761 ], [ 118.051572794736202, 24.551048316196884 ], [ 118.041852259214252, 24.54390333787229 ], [ 118.044275060003244, 24.531709197190946 ], [ 118.056416756841998, 24.526661596205177 ], [ 118.066135230820024, 24.533807114943929 ] ] ] } },
{ "type": "Feature", "properties": { "h3_index": "8741a54d6ffffff", "resolution": 7, "center_lat": 24.560282346137136, "center_lon": 118.08315022247015, "parent": "8641a54d7ffffff", "hex_type": "HEX", "target_count": 0, "has_target": true, "cell_area_km2": 4.5790492018822668, "is_expansion": false }, "geometry": { "type": "Polygon", "coordinates": [ [ [ 118.095286365782783, 24.55523190494279 ], [ 118.09286722656546, 24.567420729874378 ], [ 118.080730117775559, 24.572471481709794 ], [ 118.071011724497566, 24.565332388227578 ], [ 118.073432503285929, 24.553142000888496 ], [ 118.085570035770573, 24.548092269424867 ], [ 118.095286365782783, 24.55523190494279 ] ] ] } },
{ "type": "Feature", "properties": { "h3_index": "8741a54d8ffffff", "resolution": 7, "center_lat": 24.571238788571382, "center_lon": 118.00298416757691, "parent": "8641a54dfffffff", "hex_type": "HEX", "target_count": 0, "has_target": false, "cell_area_km2": 4.5855151426537972, "is_expansion": true }, "geometry": { "type": "Polygon", "coordinates": [ [ [ 118.015134852770274, 24.566191774780606 ], [ 118.01270953682922, 24.578384648375565 ], [ 118.000557885582737, 24.583431968960191 ], [ 117.990831130797204, 24.576285397838941 ], [ 117.993258086840001, 24.564090966410923 ], [ 118.005410157557364, 24.559044663921828 ], [ 118.015134852770274, 24.566191774780606 ] ] ] } },
{ "type": "Feature", "properties": { "h3_index": "8741a54d9ffffff", "resolution": 7, "center_lat": 24.569136864148302, "center_lon": 117.98110366505742, "parent": "8641a54dfffffff", "hex_type": "HEX", "target_count": 0, "has_target": true, "cell_area_km2": 4.5875797020156863, "is_expansion": true }, "geometry": { "type": "Polygon", "coordinates": [ [ [ 117.993258086840001, 24.564090966410923 ], [ 117.990831130797204, 24.576285397838941 ], [ 117.978675742842299, 24.581331601590083 ], [ 117.968946892621503, 24.574182356140764 ], [ 117.971375488846306, 24.561986368002678 ], [ 117.983531295101031, 24.556941182008298 ], [ 117.993258086840001, 24.564090966410923 ] ] ] } },
{ "type": "Feature", "properties": { "h3_index": "8741a54dcffffff", "resolution": 7, "center_lat": 24.553997957673957, "center_lon": 118.0175598767986, "parent": "8641a54dfffffff", "hex_type": "HEX", "target_count": 0, "has_target": true, "cell_area_km2": 4.5852478671496693, "is_expansion": false }, "geometry": { "type": "Polygon", "coordinates": [ [ [ 118.029707244153826, 24.548950848659981 ], [ 118.027283185967192, 24.561144357459536 ], [ 118.015134852770274, 24.566191774780606 ], [ 118.005410157557364, 24.559044663921828 ], [ 118.007835855568089, 24.54684959607242 ], [ 118.01998460895814, 24.541803198116551 ], [ 118.029707244153826, 24.548950848659981 ] ] ] } },
{ "type": "Feature", "properties": { "h3_index": "8741a54ddffffff", "resolution": 7, "center_lat": 24.551895591033901, "center_lon": 117.99568475081216, "parent": "8641a54dfffffff", "hex_type": "HEX", "target_count": 0, "has_target": true, "cell_area_km2": 4.5873132202162079, "is_expansion": false }, "geometry": { "type": "Polygon", "coordinates": [ [ [ 118.007835855568089, 24.54684959607242 ], [ 118.005410157557364, 24.559044663921828 ], [ 117.993258086840001, 24.564090966410923 ], [ 117.983531295101031, 24.556941182008298 ], [ 117.985958633017106, 24.544744556231386 ], [ 117.998111122757706, 24.539699272769223 ], [ 118.007835855568089, 24.54684959607242 ] ] ] } },
{ "type": "Feature", "properties": { "h3_index": "8741a54deffffff", "resolution": 7, "center_lat": 24.573336923496377, "center_lon": 118.02485883596883, "parent": "8641a54dfffffff", "hex_type": "HEX", "target_count": 0, "has_target": false, "cell_area_km2": 4.5834501455764229, "is_expansion": true }, "geometry": { "type": "Polygon", "coordinates": [ [ [ 118.037005782592146, 24.568288795315581 ], [ 118.034582106671053, 24.580480109956039 ], [ 118.022434194114695, 24.585528545710055 ], [ 118.01270953682922, 24.578384648375565 ], [ 118.015134852770274, 24.566191774780606 ], [ 118.027283185967192, 24.561144357459536 ], [ 118.037005782592146, 24.568288795315581 ] ] ] } },
{ "type": "Feature", "properties": { "h3_index": "8741a54e0ffffff", "resolution": 7, "center_lat": 24.463569978890767, "center_lon": 118.04666748442719, "parent": "8641a54e7ffffff", "hex_type": "HEX", "target_count": 0, "has_target": true, "cell_area_km2": 4.5880202490279842, "is_expansion": false }, "geometry": { "type": "Polygon", "coordinates": [ [ [ 118.058805742199809, 24.458524652572343 ], [ 118.05638469048732, 24.470724416661756 ], [ 118.044245467690928, 24.475770057294461 ], [ 118.034526875135796, 24.468614908780893 ], [ 118.036949565445966, 24.456413581816026 ], [ 118.049089209703581, 24.451368966225999 ], [ 118.058805742199809, 24.458524652572343 ] ] ] } },
{ "type": "Feature", "properties": { "h3_index": "8741a54e1ffffff", "resolution": 7, "center_lat": 24.461457800750818, "center_lon": 118.02480757018743, "parent": "8641a54e7ffffff", "hex_type": "HEX", "target_count": 0, "has_target": true, "cell_area_km2": 4.5900886794087343, "is_expansion": false }, "geometry": { "type": "Polygon", "coordinates": [ [ [ 118.036949565445966, 24.456413581816026 ], [ 118.034526875135796, 24.468614908780893 ], [ 118.022383914732742, 24.473659441252178 ], [ 118.01266322433591, 24.466501622039853 ], [ 118.015087553326978, 24.454298733321739 ], [ 118.027230934024359, 24.449255225554737 ], [ 118.036949565445966, 24.456413581816026 ] ] ] } },
{ "type": "Feature", "properties": { "h3_index": "8741a54e2ffffff", "resolution": 7, "center_lat": 24.482923246174785, "center_lon": 118.05396334737202, "parent": "8641a54e7ffffff", "hex_type": "HEX", "target_count": 0, "has_target": true, "cell_area_km2": 4.5862276729859159, "is_expansion": false }, "geometry": { "type": "Polygon", "coordinates": [ [ [ 118.066101183145889, 24.477876895012525 ], [ 118.063680513698444, 24.490074475305853 ], [ 118.051541712809936, 24.495121140047459 ], [ 118.041823159450843, 24.487969200372646 ], [ 118.044245467690928, 24.475770057294461 ], [ 118.05638469048732, 24.470724416661756 ], [ 118.066101183145889, 24.477876895012525 ] ] ] } },
{ "type": "Feature", "properties": { "h3_index": "8741a54e3ffffff", "resolution": 7, "center_lat": 24.480815300735447, "center_lon": 118.03210389326478, "parent": "8641a54e7ffffff", "hex_type": "HEX", "target_count": 0, "has_target": true, "cell_area_km2": 4.5882957510508904, "is_expansion": false }, "geometry": { "type": "Polygon", "coordinates": [ [ [ 118.044245467690928, 24.475770057294461 ], [ 118.041823159450843, 24.487969200372646 ], [ 118.029680619788991, 24.493014756615295 ], [ 118.019959967616259, 24.485860145993925 ], [ 118.022383914732742, 24.473659441252178 ], [ 118.034526875135796, 24.468614908780893 ], [ 118.044245467690928, 24.475770057294461 ] ] ] } },
{ "type": "Feature", "properties": { "h3_index": "8741a54e4ffffff", "resolution": 7, "center_lat": 24.44632395497101, "center_lon": 118.06122650255341, "parent": "8641a54e7ffffff", "hex_type": "HEX", "target_count": 0, "has_target": true, "cell_area_km2": 4.5877427856905566, "is_expansion": false }, "geometry": { "type": "Polygon", "coordinates": [ [ [ 118.073361443589633, 24.441278549041051 ], [ 118.070941648047523, 24.453478930815862 ], [ 118.058805742199809, 24.458524652572343 ], [ 118.049089209703581, 24.451368966225999 ], [ 118.051510643564043, 24.439167020365108 ], [ 118.063646971592135, 24.43412232492275 ], [ 118.073361443589633, 24.441278549041051 ] ] ] } },
{ "type": "Feature", "properties": { "h3_index": "8741a54e5ffffff", "resolution": 7, "center_lat": 24.444211320905769, "center_lon": 118.03937196423927, "parent": "8641a54e7ffffff", "hex_type": "HEX", "target_count": 0, "has_target": true, "cell_area_km2": 4.5898120027490448, "is_expansion": false }, "geometry": { "type": "Polygon", "coordinates": [ [ [ 118.051510643564043, 24.439167020365108 ], [ 118.049089209703581, 24.451368966225999 ], [ 118.036949565445966, 24.456413581816026 ], [ 118.027230934024359, 24.449255225554737 ], [ 118.029654006287416, 24.437051716729307 ], [ 118.041794071559636, 24.432008127115534 ], [ 118.051510643564043, 24.439167020365108 ] ] ] } },
{ "type": "Feature", "properties": { "h3_index": "8741a54e6ffffff", "resolution": 7, "center_lat": 24.465678379827853, "center_lon": 118.06852156124759, "parent": "8641a54e7ffffff", "hex_type": "HEX", "target_count": 0, "has_target": true, "cell_area_km2": 4.5859513840905084, "is_expansion": false }, "geometry": { "type": "Polygon", "coordinates": [ [ [ 118.080656079566367, 24.460631947782996 ], [ 118.07823666636682, 24.472830147876341 ], [ 118.066101183145889, 24.477876895012525 ], [ 118.05638469048732, 24.470724416661756 ], [ 118.058805742199809, 24.458524652572343 ], [ 118.070941648047523, 24.453478930815862 ], [ 118.080656079566367, 24.460631947782996 ] ] ] } },
{ "type": "Feature", "properties": { "h3_index": "8741a54e8ffffff", "resolution": 7, "center_lat": 24.476588067717039, "center_lon": 117.98836748249026, "parent": "8641a54efffffff", "hex_type": "HEX", "target_count": 0, "has_target": true, "cell_area_km2": 4.5924305962244265, "is_expansion": false }, "geometry": { "type": "Polygon", "coordinates": [ [ [ 118.000516528300224, 24.471545044692292 ], [ 117.998090942225147, 24.483747309974756 ], [ 117.985940930939847, 24.488790644243569 ], [ 117.976216087316899, 24.481630690122731 ], [ 117.978643312431274, 24.469426865423991 ], [ 117.990793742120317, 24.464384554247331 ], [ 118.000516528300224, 24.471545044692292 ] ] ] } },
{ "type": "Feature", "properties": { "h3_index": "8741a54e9ffffff", "resolution": 7, "center_lat": 24.474468775754797, "center_lon": 117.96649053390028, "parent": "8641a54efffffff", "hex_type": "HEX", "target_count": 0, "has_target": true, "cell_area_km2": 4.5944973576172909, "is_expansion": true }, "geometry": { "type": "Polygon", "coordinates": [ [ [ 117.978643312431274, 24.469426865423991 ], [ 117.976216087316899, 24.481630690122731 ], [ 117.964062343192026, 24.486672910917715 ], [ 117.954335406939947, 24.479510284248118 ], [ 117.956764271172744, 24.467304901259084 ], [ 117.968918432530614, 24.462263703214621 ], [ 117.978643312431274, 24.469426865423991 ] ] ] } },
{ "type": "Feature", "properties": { "h3_index": "8741a54eaffffff", "resolution": 7, "center_lat": 24.495948637998758, "center_lon": 117.99566506428654, "parent": "8641a54efffffff", "hex_type": "HEX", "target_count": 0, "has_target": true, "cell_area_km2": 4.5906361431880676, "is_expansion": false }, "geometry": { "type": "Polygon", "coordinates": [ [ [ 118.007813691153714, 24.490904592078806 ], [ 118.005388486874651, 24.50310467127046 ], [ 117.993238894440395, 24.508149027700011 ], [ 117.983514087425064, 24.500992282762134 ], [ 117.985940930939847, 24.488790644243569 ], [ 117.998090942225147, 24.483747309974756 ], [ 118.007813691153714, 24.490904592078806 ] ] ] } },
{ "type": "Feature", "properties": { "h3_index": "8741a54ebffffff", "resolution": 7, "center_lat": 24.493833577128669, "center_lon": 117.97378857018138, "parent": "8641a54efffffff", "hex_type": "HEX", "target_count": 0, "has_target": true, "cell_area_km2": 4.5927025548452436, "is_expansion": true }, "geometry": { "type": "Polygon", "coordinates": [ [ [ 117.985940930939847, 24.488790644243569 ], [ 117.983514087425064, 24.500992282762134 ], [ 117.971360760980758, 24.506035525377047 ], [ 117.961633860361914, 24.498876107638122 ], [ 117.964062343192026, 24.486672910917715 ], [ 117.976216087316899, 24.481630690122731 ], [ 117.985940930939847, 24.488790644243569 ] ] ] } },
{ "type": "Feature", "properties": { "h3_index": "8741a54ecffffff", "resolution": 7, "center_lat": 24.459341843216208, "center_lon": 118.00294182255575, "parent": "8641a54efffffff", "hex_type": "HEX", "target_count": 0, "has_target": true, "cell_area_km2": 4.5921566723629441, "is_expansion": false }, "geometry": { "type": "Polygon", "coordinates": [ [ [ 118.015087553326978, 24.454298733321739 ], [ 118.01266322433591, 24.466501622039853 ], [ 118.000516528300224, 24.471545044692292 ], [ 117.990793742120317, 24.464384554247331 ], [ 117.993219709873998, 24.452180104899739 ], [ 118.005366825035736, 24.447137706611841 ], [ 118.015087553326978, 24.454298733321739 ] ] ] } },
{ "type": "Feature", "properties": { "h3_index": "8741a54edffffff", "resolution": 7, "center_lat": 24.457222104097706, "center_lon": 117.98107024556849, "parent": "8641a54efffffff", "hex_type": "HEX", "target_count": 0, "has_target": true, "cell_area_km2": 4.5942242250583556, "is_expansion": false }, "geometry": { "type": "Polygon", "coordinates": [ [ [ 117.993219709873998, 24.452180104899739 ], [ 117.990793742120317, 24.464384554247331 ], [ 117.978643312431274, 24.469426865423991 ], [ 117.968918432530614, 24.462263703214621 ], [ 117.971346039127027, 24.450057694362883 ], [ 117.983496886772514, 24.445016407209629 ], [ 117.993219709873998, 24.452180104899739 ] ] ] } },
{ "type": "Feature", "properties": { "h3_index": "8741a54eeffffff", "resolution": 7, "center_lat": 24.47870357531383, "center_lon": 118.01023860362614, "parent": "8641a54efffffff", "hex_type": "HEX", "target_count": 0, "has_target": true, "cell_area_km2": 4.5903633930803824, "is_expansion": false }, "geometry": { "type": "Polygon", "coordinates": [ [ [ 118.022383914732742, 24.473659441252178 ], [ 118.019959967616259, 24.485860145993925 ], [ 118.007813691153714, 24.490904592078806 ], [ 117.998090942225147, 24.483747309974756 ], [ 118.000516528300224, 24.471545044692292 ], [ 118.01266322433591, 24.466501622039853 ], [ 118.022383914732742, 24.473659441252178 ] ] ] } },
{ "type": "Feature", "properties": { "h3_index": "8741a54f0ffffff", "resolution": 7, "center_lat": 24.504371053859703, "center_lon": 118.08311270436594, "parent": "8641a54f7ffffff", "hex_type": "HEX", "target_count": 0, "has_target": true, "cell_area_km2": 4.5823661214019262, "is_expansion": false }, "geometry": { "type": "Polygon", "coordinates": [ [ [ 118.095246375910733, 24.499322572389577 ], [ 118.092827727746979, 24.511516403054085 ], [ 118.080693091119002, 24.516565198145599 ], [ 118.070976679124399, 24.509419139048418 ], [ 118.07339696618979, 24.497223744572349 ], [ 118.085532026337489, 24.492175972991095 ], [ 118.095246375910733, 24.499322572389577 ] ] ] } },
{ "type": "Feature", "properties": { "h3_index": "8741a54f1ffffff", "resolution": 7, "center_lat": 24.50227111964433, "center_lon": 118.06125955286129, "parent": "8641a54f7ffffff", "hex_type": "HEX", "target_count": 0, "has_target": true, "cell_area_km2": 4.5844342774268698, "is_expansion": false }, "geometry": { "type": "Polygon", "coordinates": [ [ [ 118.07339696618979, 24.497223744572349 ], [ 118.070976679124399, 24.509419139048418 ], [ 118.05883830059048, 24.514466826964949 ], [ 118.049119786757089, 24.507318097216285 ], [ 118.051541712809936, 24.495121140047459 ], [ 118.063680513698444, 24.490074475305853 ], [ 118.07339696618979, 24.497223744572349 ] ] ] } },
{ "type": "Feature", "properties": { "h3_index": "8741a54f2ffffff", "resolution": 7, "center_lat": 24.523709296822467, "center_lon": 118.09040878836502, "parent": "8641a54f7ffffff", "hex_type": "HEX", "target_count": 0, "has_target": true, "cell_area_km2": 4.5805722659470405, "is_expansion": false }, "geometry": { "type": "Polygon", "coordinates": [ [ [ 118.102542035853205, 24.518659792042346 ], [ 118.100123770382666, 24.530851434966362 ], [ 118.087989557720888, 24.535901252633096 ], [ 118.078273186552664, 24.528758404786664 ], [ 118.080693091119002, 24.516565198145599 ], [ 118.092827727746979, 24.511516403054085 ], [ 118.102542035853205, 24.518659792042346 ] ] ] } },
{ "type": "Feature", "properties": { "h3_index": "8741a54f3ffffff", "resolution": 7, "center_lat": 24.521613596192957, "center_lon": 118.06855610068247, "parent": "8641a54f7ffffff", "hex_type": "HEX", "target_count": 0, "has_target": true, "cell_area_km2": 4.5826400651791372, "is_expansion": false }, "geometry": { "type": "Polygon", "coordinates": [ [ [ 118.080693091119002, 24.516565198145599 ], [ 118.078273186552664, 24.528758404786664 ], [ 118.066135230820024, 24.533807114943929 ], [ 118.056416756841998, 24.526661596205177 ], [ 118.05883830059048, 24.514466826964949 ], [ 118.070976679124399, 24.509419139048418 ], [ 118.080693091119002, 24.516565198145599 ] ] ] } },
{ "type": "Feature", "properties": { "h3_index": "8741a54f4ffffff", "resolution": 7, "center_lat": 24.487127805891049, "center_lon": 118.09766473290028, "parent": "8641a54f7ffffff", "hex_type": "HEX", "target_count": 0, "has_target": true, "cell_area_km2": 4.582090220112768, "is_expansion": false }, "geometry": { "type": "Polygon", "coordinates": [ [ [ 118.109795085475028, 24.482079244262419 ], [ 118.107377693355446, 24.494273695628483 ], [ 118.095246375910733, 24.499322572389577 ], [ 118.085532026337489, 24.492175972991095 ], [ 118.087951057077618, 24.479979956602328 ], [ 118.100082798759516, 24.474932104621121 ], [ 118.109795085475028, 24.482079244262419 ] ] ] } },
{ "type": "Feature", "properties": { "h3_index": "8741a54f5ffffff", "resolution": 7, "center_lat": 24.485027413827311, "center_lon": 118.07581696192261, "parent": "8641a54f7ffffff", "hex_type": "HEX", "target_count": 0, "has_target": true, "cell_area_km2": 4.5841591617233961, "is_expansion": false }, "geometry": { "type": "Polygon", "coordinates": [ [ [ 118.087951057077618, 24.479979956602328 ], [ 118.085532026337489, 24.492175972991095 ], [ 118.07339696618979, 24.497223744572349 ], [ 118.063680513698444, 24.490074475305853 ], [ 118.066101183145889, 24.477876895012525 ], [ 118.07823666636682, 24.472830147876341 ], [ 118.087951057077618, 24.479979956602328 ] ] ] } },
{ "type": "Feature", "properties": { "h3_index": "8741a54f6ffffff", "resolution": 7, "center_lat": 24.506467211909175, "center_lon": 118.10496001016281, "parent": "8641a54f7ffffff", "hex_type": "HEX", "target_count": 0, "has_target": true, "cell_area_km2": 4.5802975364008693, "is_expansion": false }, "geometry": { "type": "Polygon", "coordinates": [ [ [ 118.117089937963911, 24.501417625701315 ], [ 118.114672928614425, 24.513609891437028 ], [ 118.102542035853205, 24.518659792042346 ], [ 118.092827727746979, 24.511516403054085 ], [ 118.095246375910733, 24.499322572389577 ], [ 118.107377693355446, 24.494273695628483 ], [ 118.117089937963911, 24.501417625701315 ] ] ] } }
]
}
